{
  "norad_id": 46807,
  "name": "YAOGAN-30 08A",
  "history": [
    {
      "epoch": "2026-03-28T20:16:40.781280",
      "apogee_km": 560.3224405196515,
      "perigee_km": 559.4063468156319,
      "latitude_deg": 29.999142170052146,
      "longitude_deg": 21.811979199992493,
      "semi_major_axis_km": 6938.001393667641,
      "eccentricity": 6.602e-05,
      "inclination_deg": 34.9931,
      "raan_deg": 220.779,
      "arg_perigee_deg": 290.1599,
      "mean_anomaly_deg": 69.9038,
      "mean_motion_rev_day": 15.02281046
    }
  ]
}